0 COSMOS 839 DEB
1 10445U 76067W   13280.98914654 -.00000043  00000-0  45282-4 0  1951
2 10445 065.9568 085.8432 0659578 314.7566 120.5805 12.08946516644284
0 COSMOS 839 DEB
1 10445U 76067W   13283.45880345  .00000011  00000-0  35910-3 0  1966
2 10445 065.9556 081.2982 0659429 313.8146 069.0416 12.08946596644586
0 COSMOS 839 DEB
1 10445U 76067W   13286.43714228  .00000036  00000-0  50144-3 0  1977
2 10445 065.9559 075.8251 0659566 312.6712 071.3879 12.08946799644949
0 COSMOS 839 DEB
1 10445U 76067W   13289.41594148  .00000135  00000-0  10668-2 0  1982
2 10445 065.9578 070.3545 0659796 311.5174 075.7534 12.08947201645307
0 COSMOS 839 DEB
1 10445U 76067W   13292.83955395  .00000297  00000-0  19985-2 0  1998
2 10445 065.9586 064.0681 0660405 310.1805 216.0643 12.08948591645711
